ONEWEB-0504             
1 54122U 22138K   24150.36161557  .00000087  00000+0  18581-3 0  9996
2 54122  87.9144  93.9881 0001991  93.5575 266.5785 13.19723303 78063
ONEWEB-0506             
1 54124U 22138M   24150.33317974  .00000144  00000+0  32655-3 0  9993
2 54124  87.9141  93.9857 0002178  90.3394 269.7988 13.19723179 78035
ONEWEB-0507             
1 54125U 22138N   24150.35371914  .00000133  00000+0  29920-3 0  9999
2 54125  87.9150  94.0015 0002315  87.4865 272.6532 13.19723212 78088
ONEWEB-0508             
1 54126U 22138P   24150.35055541  .00000093  00000+0  20030-3 0  9993
2 54126  87.9148  93.9960 0002431  90.8357 269.3055 13.19727688 78068
ONEWEB-0509             
1 54127U 22138Q   24150.40109990  .00000119  00000+0  26545-3 0  9994
2 54127  87.9141  93.9741 0002126  86.8544 273.2832 13.19723687 78043
ONEWEB-0510             
1 54128U 22138R   24150.27560789  .00000006  00000+0 -15950-4 0  9992
2 54128  87.9222  63.4388 0002202  67.2704 292.8662 13.20769676 80422
ONEWEB-0511             
1 54129U 22138S   24150.39793781 -.00000157  00000+0 -42572-3 0  9993
2 54129  87.9141  93.9781 0001747  92.4561 267.6771 13.19725176 78076
